{
  "norad_id": 65849,
  "name": "STARLINK-35231",
  "history": [
    {
      "epoch": "2026-03-28T17:50:15.152352Z",
      "apogee_km": 476.41882610034645,
      "perigee_km": 473.89407279356965,
      "latitude_deg": -1.1475678406937692e-05,
      "longitude_deg": -93.3902410467939,
      "height_km": 475.95343918806367,
      "semi_major_axis_km": 6853.293449446957,
      "eccentricity": 0.0001842,
      "inclination_deg": 53.1626,
      "raan_deg": 0.3322,
      "arg_perigee_deg": 85.4302,
      "mean_anomaly_deg": 274.6909,
      "mean_motion_rev_day": 15.30219633
    },
    {
      "epoch": "2026-03-29T03:14:34.514880Z",
      "apogee_km": 475.9807707971331,
      "perigee_km": 474.47166021707926,
      "latitude_deg": 3.493626901840429e-05,
      "longitude_deg": 123.32165112823357,
      "height_km": 476.0693554420345,
      "semi_major_axis_km": 6853.363215507106,
      "eccentricity": 0.0001101,
      "inclination_deg": 53.1629,
      "raan_deg": 358.511,
      "arg_perigee_deg": 85.7838,
      "mean_anomaly_deg": 274.3289,
      "mean_motion_rev_day": 15.30196267
    },
    {
      "epoch": "2026-03-30T02:45:21.716352Z",
      "apogee_km": 476.07309000692385,
      "perigee_km": 474.7121160983497,
      "latitude_deg": -3.6217816408142807e-05,
      "longitude_deg": 125.11057671429282,
      "height_km": 475.9065866121849,
      "semi_major_axis_km": 6853.529603052636,
      "eccentricity": 9.929e-05,
      "inclination_deg": 53.1612,
      "raan_deg": 353.9623,
      "arg_perigee_deg": 55.5631,
      "mean_anomaly_deg": 304.5463,
      "mean_motion_rev_day": 15.30140543
    }
  ]
}